ENDUROSAT ONE           
1 43551U 98067NZ  20277.46709130  .00507778  13456-3  66534-3 0  9999
2 43551  51.6238  71.5970 0006877 293.8324  66.1967 16.06272671127556
EQUISAT                 
1 43552U 98067PA  20276.80368113  .00067435  00000-0  32674-3 0  9996
2 43552  51.6283  94.5591 0003595 180.8204 179.2793 15.81849950127158
AEROCUBE 12A            
1 43556U 18046C   20277.54039697  .00001700  00000-0  69705-4 0  9992
2 43556  51.6414 306.1007 0007976 327.0581  32.9901 15.30127647123925
AEROCUBE 12B            
1 43557U 18046D   20277.49173683  .00002242  00000-0  88836-4 0  9999
2 43557  51.6412 307.2599 0007972 325.3769  34.6692 15.29801498123856
UITMSAT-1               
1 43589U 98067PD  20277.54278220  .00123568  00000-0  41604-3 0  9990
2 43589  51.6299  85.0085 0003592 236.2332 123.8331 15.89157075123082
MAYA-1                  
1 43590U 98067PE  20276.77998036  .00126213  00000-0  42833-3 0  9995
2 43590  51.6250  88.8532 0003406 228.9283 131.1428 15.88991179122893
BHUTAN-1                
1 43591U 98067PF  20277.49164090  .00127061  00000-0  41896-3 0  9991
2 43591  51.6315  84.7553 0003673 236.3635 123.7021 15.89560541123011
SIRIUSSAT-1             
1 43595U 98067PG  20277.03925382  .00051498  00000-0  23108-3 0  9990
2 43595  51.6280  95.1592 0001330 322.3109  37.8829 15.83606212122015
SIRIUSSAT-2             
1 43596U 98067PH  20277.04519014  .00052949  00000-0  23860-3 0  9990
2 43596  51.6223  96.0221 0000947 238.9397 121.2282 15.83504859122000
TANUSHA-3               
1 43597U 98067PJ  20248.19053934  .05224124  12197-4  75260-3 0  9995
2 43597  51.6102 220.8087 0003266 222.6275 137.4495 16.33928828117760
SURFSAT                 
1 43614U 18070B   20277.57314708  .00003756  00000-0  95035-4 0  9994
2 43614  93.0290 199.3432 0012045 282.0289  77.9616 15.39745988115111
CP7 (DAVE)              
1 43615U 18070C   20277.42070054  .00003598  00000-0  91572-4 0  9998
2 43615  93.0292 199.2635 0012235 282.2919  77.6965 15.39568833115083
ELFIN-B                 
1 43616U 18070D   20277.48895594  .00004854  00000-0  11710-3 0  9990
2 43616  93.0251 199.2736 0012421 283.0682  76.9186 15.41172132115155
ELFIN-A                 
1 43617U 18070E   20277.57254231  .00005669  00000-0  13567-3 0  9995
2 43617  93.0305 199.9123 0011772 278.4034  81.5887 15.41418236115170
CUBEBEL-1 (BSUSAT-1)    
1 43666U 18083E   20277.45247404  .00001680  00000-0  84694-4 0  9993
2 43666  97.4827 302.8255 0014808 350.7652 114.9087 15.18459312107005
CICERO 10               
1 43690U 18088A   20277.43858240  .00001317  00000-0  58559-4 0  9997
2 43690  85.0420   7.1616 0012568 274.5738  85.4068 15.20400125105166
IRVINE01                
1 43693U 18088D   20277.50357903  .00003042  00000-0  12609-3 0  9990
2 43693  85.0393   5.4669 0015473 249.9292 110.0286 15.23343386105295
PROXIMA I               
1 43694U 18088E   20277.50405346  .00001307  00000-0  55054-4 0  9990
2 43694  85.0362   5.3786 0017061 242.8003 117.1501 15.22149904105284
PROXIMA II              
1 43696U 18088G   20277.56791178  .00001316  00000-0  55438-4 0  9995
2 43696  85.0363   5.3411 0017104 242.4602 117.4903 15.22150819105287
FACSAT-1                
1 43721U 18096C   20277.46456278  .00002587  00000-0  98415-4 0  9994
2 43721  97.4137 350.4251 0019105 100.2411  25.5142 15.27513528102871
CENTAURI-2              
1 43722U 18096D   20277.42748366  .00002729  00000-0  10175-3 0  9997
2 43722  97.4142 350.7750 0019067 100.2836 260.0554 15.28135228102885
INNOSAT-2               
1 43738U 18096V   20277.48656895  .00005320  00000-0  17931-3 0  9992
2 43738  97.4176 353.2680 0024578 104.9250  21.9317 15.30877749103058
SIRION PATHFINDER-2     
1 43759U 18099B   20277.58349511 -.00000103  00000-0 -40969-5 0  9998
2 43759  97.6972 347.3511 0014055 176.0481 184.0853 14.95323449100099
CORVUS-BC 4             
1 43767U 18099K   20277.63175829  .00000625  00000-0  62688-4 0  9990
2 43767  97.6950 346.6910 0011870 178.0389 182.0881 14.94769332100060
MOVE-II                 
1 43780U 18099Y   20277.45212807  .00000245  00000-0  27258-4 0  9995
2 43780  97.6976 347.1901 0013381 188.1383 171.9623 14.95499131100052
SPACEBEE-7              
1 43816U 18099BL  20277.43775037  .00000203  00000-0  23325-4 0  9997
2 43816  97.6992 347.6325 0013565 171.7849 188.3596 14.95779260 99630
SPACEBEE-5              
1 43817U 18099BM  20277.47703045  .00001662  00000-0  15114-3 0  9998
2 43817  97.7049 348.3028 0013713 171.6057 188.5396 14.96499377 99660
SPACEBEE-6              
1 43818U 18099BN  20277.45321118  .00000334  00000-0  34914-4 0  9999
2 43818  97.7007 347.8435 0013591 172.3093 187.8339 14.95999407 99794
SHIELDS 1               
1 43850U 18104B   20277.52868282  .00000586  00000-0  24189-4 0  9990
2 43850  85.0252 103.9053 0016315  40.0777 320.1664 15.21474377 99906
STF-1                   
1 43852U 18104D   20277.54544225  .00001370  00000-0  58963-4 0  9991
2 43852  85.0294 104.5015 0016386  53.0041 307.2697 15.21484369 99886
ZACUBE-2                
1 43907U 18111AH  20277.43786207  .00000965  00000-0  41559-4 0  9998
2 43907  97.2531 173.8805 0022840 119.1737 358.6466 15.24698040 98463
LUME 1                  
1 43908U 18111AJ  20277.43691931  .00001356  00000-0  56366-4 0  9995
2 43908  97.2528 174.1313 0022611 118.9131 241.4380 15.25241946 98485
AOBA VELOX-IV           
1 43940U 19003J   20277.56670177  .00002315  00000-0  93860-4 0  9991
2 43940  97.2168 325.0919 0023139 196.5543 163.4942 15.25378768 95123
CATSAT-2                
1 44029U 98067PV  20277.60584089  .00025072  00000-0  21471-3 0  9991
2 44029  51.6366 126.4712 0003915 151.1409 208.9805 15.69263866 95480
DELPHINI                
1 44030U 98067PW  20277.53923291  .00032331  00000-0  25802-3 0  9995
2 44030  51.6311 124.3485 0004039 150.7147 209.4077 15.70821372 95478
UNITE                   
1 44031U 98067PX  20277.22359454  .00014050  00000-0  15478-3 0  9992
2 44031  51.6360 138.1366 0003514 127.1548 232.9768 15.63415973 95267
CATSAT-1                
1 44033U 98067PZ  20277.60573300  .00024934  00000-0  21350-3 0  9992
2 44033  51.6368 126.4793 0003988 148.5623 211.5613 15.69270428 95393
RAAVANA-1               
1 44329U 98067QE  20276.95718030  .00017103  00000-0  21205-3 0  9997
2 44329  51.6385 154.4373 0005458  56.7386 303.4130 15.60146400 73771
UGUISU                  
1 44330U 98067QF  20277.36072907  .00014804  00000-0  18515-3 0  9996
2 44330  51.6358 152.6020 0005423  57.9808 302.1711 15.60044261 73814
NEPALISAT-1             
1 44331U 98067QG  20277.52499403  .00015532  00000-0  19298-3 0  9997
2 44331  51.6357 151.4516 0005510  61.5543 298.6005 15.60173476 73855
SPOOQY-1                
1 44332U 98067QH  20277.21608943  .00015235  00000-0  19058-3 0  9999
2 44332  51.6368 153.1458 0004734  65.0539 295.0945 15.60015851 73769
SPACEBEE-9              
1 44370U 19037F   20277.57364400  .00012740  00000-0  26955-3 0  9999
2 44370  45.0054 230.5499 0012165 105.0867 255.1369 15.45130245 71315
SPACEBEE-8              
1 44371U 19037G   20277.55653309  .00027214  00000-0  45771-3 0  9996
2 44371  45.0059 220.3016 0011144 116.0909 244.1131 15.51239952 71438
IOD-1 GEMS              
1 44385U 98067QK  20277.57107280  .00028530  00000-0  29987-3 0  9998
2 44385  51.6376 147.3331 0001017  45.8860 314.2218 15.64086531 71396
MOVE-IIB                
1 44398U 19038N   20277.59314532  .00002140  00000-0  12550-3 0  9992
2 44398  97.5469 237.5211 0026334 112.2946 248.1077 15.12557760 68927
SONATE                  
1 44400U 19038Q   20277.59162516  .00000785  00000-0  49087-4 0  9998
2 44400  97.5515 237.5253 0026438 111.6124 248.7921 15.12057575 68917
LUCKY-7                 
1 44406U 19038W   20277.38923681  .00000824  00000-0  51003-4 0  9994
2 44406  97.5519 237.4683 0026110 112.5046 247.8952 15.12342712 68883
BEESAT 9                
1 44412U 19038AC  20277.44705519  .00001173  00000-0  70785-4 0  9992
2 44412  97.5508 237.5089 0024091 117.4365 242.9320 15.12463873 68598
JAISAT-1                
1 44419U 19038F   20277.43284278  .00001168  00000-0  69608-4 0  9998
2 44419  97.5509 237.8413 0022948 116.4124 243.9465 15.12947978 68922
SWIATOWID               
1 44426U 98067QL  20277.51504083  .00040064  00000-0  39205-3 0  9990
2 44426  51.6406 146.0219 0001379  61.7267   7.3252 15.65719002 71414
KRAKSAT                 
1 44427U 98067QM  20277.40833755  .00013400  00000-0  18446-3 0  9998
2 44427  51.6397 157.1385 0002693  18.9557 151.7309 15.57585119 71291
VCC A                   
1 44428U 98067QN  20277.38119003  .00014623  00000-0  18748-3 0  9992
2 44428  51.6385 154.3177 0002126  46.8076 313.3094 15.59406205 71336
ENTRYSAT                
1 44429U 98067QP  20276.94767774  .00020918  00000-0  25072-3 0  9990
2 44429  51.6367 154.3805 0001623  46.5225 313.5903 15.60891494 71295
VCC C                   
1 44430U 98067QQ  20277.07769139  .00028027  00000-0  30994-3 0  9992
2 44430  51.6366 151.5045 0001631  77.8756 282.2421 15.62795398 70177
VCC B                   
1 44431U 98067QR  20277.05675675  .00016449  00000-0  20950-3 0  9998
2 44431  51.6368 155.8734 0002231  44.2087 315.9084 15.59476397 71221
ATL-1                   
1 44830U 19084G   20277.56996350  .00899299  47136-3  92964-3 0  9995
2 44830  96.9410 149.0274 0010338 180.1251 180.0033 16.10640144 47609
SMOG-P                  
1 44832U 19084J   20272.06303716  .11453400  23230-5  63587-3 0  9997
2 44832  96.9437 144.0914 0010614 231.8961 128.1384 16.41416157 46773
DUCHIFAT-3              
1 44854U 19089C   20277.13081523  .00000637  00000-0  57762-4 0  9990
2 44854  36.9661 181.9683 0008579 221.9192 138.0878 14.99144068 44468
EYESAT-NANO             
1 44877U 19092E   20277.52279358  .00001207  00000-0  64342-4 0  9993
2 44877  97.4575  99.0651 0013859   9.9515 350.1990 15.17023648 43971
